{"spkid": "50283594", "covariance": {"data": [["9.464158691562188E-15", "-2.008268597364015E-14", "-1.81742465849289E-12", "2.432941852292492E-12", "-2.432501201008813E-12", "-3.306179882669424E-14"], ["-2.008268597364015E-14", "4.591307607854357E-14", "3.827307598626918E-12", "-4.513755980560851E-12", "4.174382074989682E-12", "2.786895428391427E-13"], ["-1.81742465849289E-12", "3.827307598626918E-12", "9.270693480203204E-10", "-1.093121990360501E-9", "1.588217579126754E-9", "6.581020334475072E-12"], ["2.432941852292492E-12", "-4.513755980560851E-12", "-1.093121990360501E-9", "2.544135870789104E-8", "-2.56651764943131E-8", "4.732460801193504E-9"], ["-2.432501201008813E-12", "4.174382074989682E-12", "1.588217579126754E-9", "-2.56651764943131E-8", "2.642568345854483E-8", "-4.65296599508535E-9"], ["-3.306179882669424E-14", "2.786895428391427E-13", "6.581020334475072E-12", "4.732460801193504E-9", "-4.65296599508535E-9", "1.146358342841397E-9"]], "elements": [{"label": "e", "sigma": 9.72839076700879e-08, "name": "e", "title": "eccentricity", "value": ".6482997709009107", "units": null}, {"name": "q", "sigma": 2.14273367637099e-07, "units": "au", "title": "perihelion distance", "value": ".7196371135986981", "label": "q"}, {"name": "tp", "sigma": 3.04478135178919e-05, "units": "TDB", "value": "2453630.290869117199", "title": "time of perihelion passage", "label": "tp"}, {"label": "node", "name": "om", "sigma": 0.00015950347553546, "title": "longitude of the ascending node", "value": "80.53576113423688", "units": "deg"}, {"name": "w", "sigma": 0.000162559784259653, "title": "argument of perihelion", "value": "306.7524079016277", "units": "deg", "label": "peri"}, {"label": "i", "units": "deg", "title": "inclination", "value": "9.516517772134323", "sigma": 3.38579140355899e-05, "name": "i"}], "labels": ["e", "q", "tp", "node", "peri", "i"], "epoch": "2453387.5"}, "elements": [{"label": "e", "sigma": "9.6963E-8", "name": "e", "units": null, "value": ".6468520452295806", "title": "eccentricity"}, {"label": "a", "title": "semi-major axis", "value": "2.048317042276128", "units": "au", "sigma": "1.7334E-7", "name": "a"}, {"units": "au", "value": ".7233589742012092", "title": "perihelion distance", "sigma": "2.101E-7", "name": "q", "label": "q"}, {"name": "i", "sigma": "3.379E-5", "units": "deg", "value": "9.533803319447175", "title": "inclination; angle with respect to x-y ecliptic plane", "label": "i"}, {"label": "node", "units": "deg", "value": "80.25337845784779", "title": "longitude of the ascending node", "sigma": ".00015929", "name": "om"}, {"label": "peri", "units": "deg", "title": "argument of perihelion", "value": "307.0643215811663", "sigma": ".00016312", "name": "w"}, {"title": "mean anomaly", "value": "28.32946312353075", "units": "deg", "name": "ma", "sigma": ".00035009", "label": "M"}, {"sigma": ".0010306", "name": "tp", "value": "2461116.238334720587", "title": "time of perihelion passage", "units": "TDB", "label": "tp"}, {"label": "period", "title": "sidereal orbital period", "value": "1070.765067742942", "units": "d", "sigma": ".00013592", "name": "per"}, {"sigma": "4.2677E-8", "name": "n", "title": "mean motion", "value": ".3362082036901347", "units": "deg/d", "label": "n"}, {"units": "au", "value": "3.373275110351046", "title": "aphelion distance", "sigma": "2.8546E-7", "name": "ad", "label": "Q"}], "epoch": "2461200.5"}